[
    {
        "Altitude(m)": 556580.1176395086,
        "Argument of Periapsis(deg)": 0.026491964442854003,
        "Eccentricity": 0.0,
        "Inclination(deg)": 53.0,
        "Latitude(deg)": -12.026364289462155,
        "Longitude(deg)": -113.99716087122965,
        "Mean Anomaly(deg)": 194.91187147031033,
        "RAAN(deg)": 159.96057347411204,
        "Satellite Name": "Starlink Shell 1 713",
        "Satellite Number": 713,
        "Semi-Major Axis(m)": 6931778.249405717,
        "Time(s)": 760
    },
    {
        "Altitude(m)": 556708.294813469,
        "Argument of Periapsis(deg)": 0.02684054292236524,
        "Eccentricity": 0.0,
        "Inclination(deg)": 53.0,
        "Latitude(deg)": -12.523044197638107,
        "Longitude(deg)": -113.6443213139277,
        "Mean Anomaly(deg)": 195.53870267386705,
        "RAAN(deg)": 159.9600547040346,
        "Satellite Name": "Starlink Shell 1 713",
        "Satellite Number": 713,
        "Semi-Major Axis(m)": 6931778.249405717,
        "Time(s)": 770
    },
    {
        "Altitude(m)": 556838.6599426436,
        "Argument of Periapsis(deg)": 0.027189121401876473,
        "Eccentricity": 0.0,
        "Inclination(deg)": 53.0,
        "Latitude(deg)": -13.01911278395447,
        "Longitude(deg)": -113.28998397942107,
        "Mean Anomaly(deg)": 196.16553387742383,
        "RAAN(deg)": 159.95953593395714,
        "Satellite Name": "Starlink Shell 1 713",
        "Satellite Number": 713,
        "Semi-Major Axis(m)": 6931778.249405717,
        "Time(s)": 780
    },
    {
        "Altitude(m)": 556971.1727407156,
        "Argument of Periapsis(deg)": 0.02753769988138771,
        "Eccentricity": 0.0,
        "Inclination(deg)": 53.0,
        "Latitude(deg)": -13.514543270976175,
        "Longitude(deg)": -112.93408269806709,
        "Mean Anomaly(deg)": 196.79236508098052,
        "RAAN(deg)": 159.95901716387965,
        "Satellite Name": "Starlink Shell 1 713",
        "Satellite Number": 713,
        "Semi-Major Axis(m)": 6931778.249405717,
        "Time(s)": 790
    },
    {
        "Altitude(m)": 557105.7918186462,
        "Argument of Periapsis(deg)": 0.02788627836089895,
        "Eccentricity": 0.0,
        "Inclination(deg)": 53.0,
        "Latitude(deg)": -14.009308549230983,
        "Longitude(deg)": -112.57655113934186,
        "Mean Anomaly(deg)": 197.41919628453724,
        "RAAN(deg)": 159.95849839380216,
        "Satellite Name": "Starlink Shell 1 713",
        "Satellite Number": 713,
        "Semi-Major Axis(m)": 6931778.249405717,
        "Time(s)": 800
    },
    {
        "Altitude(m)": 557242.4747025182,
        "Argument of Periapsis(deg)": 0.02823485684041019,
        "Eccentricity": 0.0,
        "Inclination(deg)": 53.0,
        "Latitude(deg)": -14.503381161559531,
        "Longitude(deg)": -112.2173222808592,
        "Mean Anomaly(deg)": 198.04602748809387,
        "RAAN(deg)": 159.9579796237247,
        "Satellite Name": "Starlink Shell 1 713",
        "Satellite Number": 713,
        "Semi-Major Axis(m)": 6931778.249405717,
        "Time(s)": 810
    },
    {
        "Altitude(m)": 557381.1778519646,
        "Argument of Periapsis(deg)": 0.028583435319921423,
        "Eccentricity": 0.0,
        "Inclination(deg)": 53.0,
        "Latitude(deg)": -14.996733287151418,
        "Longitude(deg)": -111.8563278773747,
        "Mean Anomaly(deg)": 198.67285869165065,
        "RAAN(deg)": 159.9574608536472,
        "Satellite Name": "Starlink Shell 1 713",
        "Satellite Number": 713,
        "Semi-Major Axis(m)": 6931778.249405717,
        "Time(s)": 820
    },
    {
        "Altitude(m)": 557521.8566790938,
        "Argument of Periapsis(deg)": 0.028932013799432665,
        "Eccentricity": 0.0,
        "Inclination(deg)": 53.0,
        "Latitude(deg)": -15.489336725251247,
        "Longitude(deg)": -111.49349944266648,
        "Mean Anomaly(deg)": 199.29968989520736,
        "RAAN(deg)": 159.95694208356977,
        "Satellite Name": "Starlink Shell 1 713",
        "Satellite Number": 713,
        "Semi-Major Axis(m)": 6931778.249405717,
        "Time(s)": 830
    },
    {
        "Altitude(m)": 557664.465567932,
        "Argument of Periapsis(deg)": 0.029280592278943897,
        "Eccentricity": 0.0,
        "Inclination(deg)": 53.0,
        "Latitude(deg)": -15.981162878528803,
        "Longitude(deg)": -111.12876771856259,
        "Mean Anomaly(deg)": 199.92652109876406,
        "RAAN(deg)": 159.95642331349228,
        "Satellite Name": "Starlink Shell 1 713",
        "Satellite Number": 713,
        "Semi-Major Axis(m)": 6931778.249405717,
        "Time(s)": 840
    },
    {
        "Altitude(m)": 557808.9578943887,
        "Argument of Periapsis(deg)": 0.029629170758455132,
        "Eccentricity": 0.0,
        "Inclination(deg)": 53.0,
        "Latitude(deg)": -16.472182736095778,
        "Longitude(deg)": -110.7620621440138,
        "Mean Anomaly(deg)": -159.44664769767923,
        "RAAN(deg)": 159.95590454341482,
        "Satellite Name": "Starlink Shell 1 713",
        "Satellite Number": 713,
        "Semi-Major Axis(m)": 6931778.249405717,
        "Time(s)": 850
    },
    {
        "Altitude(m)": 557955.2860466663,
        "Argument of Periapsis(deg)": 0.02997774923796637,
        "Eccentricity": 0.0,
        "Inclination(deg)": 53.0,
        "Latitude(deg)": -16.962366856157473,
        "Longitude(deg)": -110.39331200520638,
        "Mean Anomaly(deg)": -158.8198164941225,
        "RAAN(deg)": 159.95538577333733,
        "Satellite Name": "Starlink Shell 1 713",
        "Satellite Number": 713,
        "Semi-Major Axis(m)": 6931778.249405717,
        "Time(s)": 860
    },
    {
        "Altitude(m)": 558103.4014462319,
        "Argument of Periapsis(deg)": 0.030326327717477602,
        "Eccentricity": 0.0,
        "Inclination(deg)": 53.0,
        "Latitude(deg)": -17.451685348291583,
        "Longitude(deg)": -110.02244506431515,
        "Mean Anomaly(deg)": -158.19298529056582,
        "RAAN(deg)": 159.95486700325986,
        "Satellite Name": "Starlink Shell 1 713",
        "Satellite Number": 713,
        "Semi-Major Axis(m)": 6931778.249405717,
        "Time(s)": 870
    },
    {
        "Altitude(m)": 558253.2545691659,
        "Argument of Periapsis(deg)": 0.030674906196988847,
        "Eccentricity": 0.0,
        "Inclination(deg)": 53.0,
        "Latitude(deg)": -17.940107855335395,
        "Longitude(deg)": -109.64938870984409,
        "Mean Anomaly(deg)": -157.5661540870091,
        "RAAN(deg)": 159.95434823318237,
        "Satellite Name": "Starlink Shell 1 713",
        "Satellite Number": 713,
        "Semi-Major Axis(m)": 6931778.249405717,
        "Time(s)": 880
    },
    {
        "Altitude(m)": 558404.7949680496,
        "Argument of Periapsis(deg)": 0.031023484676500086,
        "Eccentricity": 0.0,
        "Inclination(deg)": 53.0,
        "Latitude(deg)": -18.427603534875477,
        "Longitude(deg)": -109.27406942615876,
        "Mean Anomaly(deg)": -156.93932288345235,
        "RAAN(deg)": 159.9538294631049,
        "Satellite Name": "Starlink Shell 1 713",
        "Satellite Number": 713,
        "Semi-Major Axis(m)": 6931778.249405717,
        "Time(s)": 890
    },
    {
        "Altitude(m)": 558557.9712942459,
        "Argument of Periapsis(deg)": 0.03137206315601132,
        "Eccentricity": 0.0,
        "Inclination(deg)": 53.0,
        "Latitude(deg)": -18.91414104032517,
        "Longitude(deg)": -108.89641226322352,
        "Mean Anomaly(deg)": -156.31249167989566,
        "RAAN(deg)": 159.95331069302745,
        "Satellite Name": "Starlink Shell 1 713",
        "Satellite Number": 713,
        "Semi-Major Axis(m)": 6931778.249405717,
        "Time(s)": 900
    },
    {
        "Altitude(m)": 558712.7313206663,
        "Argument of Periapsis(deg)": 0.03172064163552255,
        "Eccentricity": 0.0,
        "Inclination(deg)": 53.0,
        "Latitude(deg)": -19.399688501578712,
        "Longitude(deg)": -108.51634181945907,
        "Mean Anomaly(deg)": -155.6856604763389,
        "RAAN(deg)": 159.95279192294998,
        "Satellite Name": "Starlink Shell 1 713",
        "Satellite Number": 713,
        "Semi-Major Axis(m)": 6931778.249405717,
        "Time(s)": 910
    },
    {
        "Altitude(m)": 558869.0219649152,
        "Argument of Periapsis(deg)": 0.0320692201150338,
        "Eccentricity": 0.0,
        "Inclination(deg)": 53.0,
        "Latitude(deg)": -19.884213505231482,
        "Longitude(deg)": -108.13378171202054,
        "Mean Anomaly(deg)": -155.05882927278225,
        "RAAN(deg)": 159.9522731528725,
        "Satellite Name": "Starlink Shell 1 713",
        "Satellite Number": 713,
        "Semi-Major Axis(m)": 6931778.249405717,
        "Time(s)": 920
    },
    {
        "Altitude(m)": 559026.7893128654,
        "Argument of Periapsis(deg)": 0.032417798594545036,
        "Eccentricity": 0.0,
        "Inclination(deg)": 53.0,
        "Latitude(deg)": -20.367683074356307,
        "Longitude(deg)": -107.74865404742272,
        "Mean Anomaly(deg)": -154.4319980692255,
        "RAAN(deg)": 159.95175438279503,
        "Satellite Name": "Starlink Shell 1 713",
        "Satellite Number": 713,
        "Semi-Major Axis(m)": 6931778.249405717,
        "Time(s)": 930
    },
    {
        "Altitude(m)": 559185.978642658,
        "Argument of Periapsis(deg)": 0.03276637707405627,
        "Eccentricity": 0.0,
        "Inclination(deg)": 53.0,
        "Latitude(deg)": -20.85006364782277,
        "Longitude(deg)": -107.36088040544374,
        "Mean Anomaly(deg)": -153.8051668656688,
        "RAAN(deg)": 159.95123561271754,
        "Satellite Name": "Starlink Shell 1 713",
        "Satellite Number": 713,
        "Semi-Major Axis(m)": 6931778.249405717,
        "Time(s)": 940
    }
]